OBJECT_NAME,OBJECT_ID,EPOCH,MEAN_MOTION,ECCENTRICITY,INCLINATION,RA_OF_ASC_NODE,ARG_OF_PERICENTER,MEAN_ANOMALY,EPHEMERIS_TYPE,CLASSIFICATION_TYPE,NORAD_CAT_ID,ELEMENT_SET_NO,REV_AT_EPOCH,BSTAR,MEAN_MOTION_DOT,MEAN_MOTION_DDOT
PROX-1,2019-036A,2026-07-22T09:25:48.396864,14.91352075,.00064555,23.9936,238.9320,86.0304,274.0934,0,U,44339,999,37873,.12226609E-2,.12795E-3,0
NPSAT1,2019-036B,2026-07-22T18:38:28.474080,14.74871082,.00071796,24.0006,345.9090,255.3402,104.6299,0,U,44340,999,37775,.72568717E-3,.5225E-4,0
FORMOSAT 7-3,2019-036E,2026-07-21T11:32:48.267744,15.10025564,.00005683,23.9996,302.4695,14.9916,345.0604,0,U,44343,999,38843,.19720739E-3,.3638E-4,0
FORMOSAT 7-1,2019-036L,2026-07-22T22:01:31.427904,14.96634503,.00005452,23.9967,151.4807,210.8458,149.2011,0,U,44349,999,39001,.16093324E-3,.2182E-4,0
FORMOSAT 7-4,2019-036M,2026-07-22T08:10:00.296544,14.96628178,.00008306,23.9965,217.4866,227.4313,132.6118,0,U,44350,999,38934,.13647307E-3,.1897E-4,0
FORMOSAT 7-2,2019-036N,2026-07-22T11:54:13.791744,14.96628795,.00003151,23.9977,270.7545,211.5854,148.4628,0,U,44351,999,38888,.13351526E-3,.1862E-4,0
FORMOSAT 7-6,2019-036Q,2026-07-22T21:29:38.721984,14.96636103,.00012434,23.9979,88.8640,147.7166,212.3411,0,U,44353,999,38717,.16723517E-3,.2256E-4,0
FORMOSAT 7-5,2019-036V,2026-07-22T20:57:19.143072,14.96616789,.00000419,23.9996,27.7718,172.6700,187.3801,0,U,44358,999,38770,.17520899E-3,.2348E-4,0
METEOR-M2 2,2019-038A,2026-07-22T22:18:38.177856,14.24374482,.00001939,98.9174,191.7465,346.0818,14.0354,0,U,44387,999,36638,.58318192E-4,.89E-6,0
GLOBAL-4,2019-054E,2026-07-22T22:11:18.704256,15.67817374,.00066473,45.0060,29.6651,243.5323,116.4894,0,U,44499,999,38596,.67304365E-3,.76341E-3,0
ZY-1 02D,2019-059A,2026-07-22T23:17:00.528000,14.35269296,.00029862,98.6705,265.5627,266.4624,93.6219,0,U,44528,999,35947,-.19951608E-4,-.102E-5,0
TAURUS-1 (JINNIUZUO 1),2019-059C,2026-07-22T22:09:14.296032,14.72427601,.00085752,98.6449,10.9829,190.6249,169.4777,0,U,44530,999,36390,.11974028E-2,.7545E-4,0
ZHUHAI-1 03B,2019-060C,2026-07-22T21:30:48.464064,15.55992425,.00088616,97.5562,3.6516,177.8579,182.2715,0,U,44536,999,38187,.49409885E-3,.34399E-3,0
ZHUHAI-1 03D,2019-060E,2026-07-22T21:45:51.344064,15.51723305,.00078773,97.5400,355.4690,163.8417,196.3087,0,U,44538,999,38161,.70542894E-3,.42133E-3,0
ZHUHAI-1 03E,2019-060F,2026-07-22T22:38:36.902688,15.42113278,.00046704,97.5650,355.1691,240.8886,119.1893,0,U,44539,999,38127,.45964982E-3,.19608E-3,0
GAOFEN-7,2019-072A,2026-07-22T21:57:32.827392,15.20958819,.00168746,97.5700,264.6883,283.1952,76.7400,0,U,44703,999,37307,.19416381E-3,.4243E-4,0
JILIN-1 GAOFEN 2A,2019-075A,2026-07-22T21:04:21.031680,15.40166261,.00045645,97.4954,288.5230,322.3322,37.7604,0,U,44777,999,37037,.40583562E-3,.16214E-3,0
NINGXIA-1 1,2019-076A,2026-07-22T22:52:15.268800,14.02042930,.00111881,45.0070,20.0204,324.0107,35.9973,0,U,44779,999,34287,.37514099E-4,-.72E-6,0
NINGXIA-1 5,2019-076E,2026-07-22T23:09:37.167264,14.02090076,.00111929,45.0066,19.2956,314.3699,45.6217,0,U,44783,999,34279,-.14109677E-4,-.152E-5,0
KL-ALPHA A,2019-077A,2026-07-22T23:32:50.468352,13.56046364,.00116176,88.9239,218.6494,16.2022,343.9502,0,U,44785,999,33058,.15725373E-3,.122E-5,0
CARTOSAT-3,2019-081A,2026-07-22T23:41:41.182944,15.19219086,.00122692,97.4286,265.2730,34.5942,325.6089,0,U,44804,999,36890,.15760525E-3,.3256E-4,0
JILIN-1 GAOFEN 2B,2019-086A,2026-07-22T20:56:37.357440,15.21061975,.00139757,97.4865,275.6452,188.1047,171.9965,0,U,44836,999,36591,.30783213E-3,.6786E-4,0
TIANQIN 1 (CAS-6),2019-093A,2026-07-22T22:50:44.735424,14.95577840,.00098664,97.7793,287.5358,297.2726,62.7489,0,U,44879,999,35739,.8633577E-4,.9E-5,0
ETRSS-1,2019-093B,2026-07-22T22:45:19.423008,14.96030689,.00099337,97.7814,288.0234,297.9812,62.0404,0,U,44880,999,35740,.10279217E-3,.1096E-4,0
TIANYAN 01,2019-093C,2026-07-22T22:07:14.248416,14.86566146,.00128859,97.7512,275.2802,335.7526,24.3082,0,U,44881,999,35672,.173885E-6,-.52E-6,0
TIANYAN 02,2019-093D,2026-07-22T22:41:50.772192,15.05598053,.00125014,97.7935,299.0887,259.5760,100.4058,0,U,44882,999,35799,.55466194E-3,.795E-4,0
CBERS 4A,2019-093E,2026-07-22T22:55:35.291712,14.81453901,.00019293,98.0173,271.4234,124.7462,235.3933,0,U,44883,999,35637,.13383425E-3,.994E-5,0
WEILAI 1R,2019-093F,2026-07-22T22:11:33.622080,15.00911044,.00146667,97.7891,293.8793,281.1855,78.7720,0,U,44884,999,35778,.31763041E-3,.3992E-4,0
