PROX-1                  
1 44339U 19036A   26203.39292126  .00012795  00000+0  12227-2 0  9998
2 44339  23.9936 238.9320 0006455  86.0304 274.0934 14.91352075378739
NPSAT1                  
1 44340U 19036B   26203.77671845  .00005225  00000+0  72569-3 0  9997
2 44340  24.0006 345.9090 0007179 255.3402 104.6299 14.74871082377756
FORMOSAT 7-3            
1 44343U 19036E   26202.48111421  .00003638  00000+0  19721-3 0  9993
2 44343  23.9996 302.4695 0000568  14.9916 345.0604 15.10025564388433
FORMOSAT 7-1            
1 44349U 19036L   26203.91772486  .00002182  00000+0  16093-3 0  9994
2 44349  23.9967 151.4807 0000545 210.8458 149.2011 14.96634503390012
FORMOSAT 7-4            
1 44350U 19036M   26203.34028121  .00001897  00000+0  13647-3 0  9997
2 44350  23.9965 217.4866 0000830 227.4313 132.6118 14.96628178389340
FORMOSAT 7-2            
1 44351U 19036N   26203.49599296  .00001862  00000+0  13352-3 0  9995
2 44351  23.9977 270.7545 0000315 211.5854 148.4628 14.96628795388886
FORMOSAT 7-6            
1 44353U 19036Q   26203.89558706  .00002256  00000+0  16724-3 0  9996
2 44353  23.9979  88.8640 0001243 147.7166 212.3411 14.96636103387175
FORMOSAT 7-5            
1 44358U 19036V   26203.87313823  .00002348  00000+0  17521-3 0  9996
2 44358  23.9996  27.7718 0000041 172.6700 187.3801 14.96616789387704
METEOR-M2 2             
1 44387U 19038A   26203.92960854  .00000089  00000+0  58318-4 0  9998
2 44387  98.9174 191.7465 0000193 346.0818  14.0354 14.24374482366384
GLOBAL-4                
1 44499U 19054E   26203.92452204  .00076341  00000+0  67304-3 0  9993
2 44499  45.0060  29.6651 0006647 243.5323 116.4894 15.67817374385964
ZY-1 02D                
1 44528U 19059A   26203.97014500 -.00000102  00000+0 -19952-4 0  9990
2 44528  98.6705 265.5627 0002986 266.4624  93.6219 14.35269296359473
TAURUS-1 (JINNIUZUO 1)  
1 44530U 19059C   26203.92308213  .00007545  00000+0  11974-2 0  9995
2 44530  98.6449  10.9829 0008575 190.6249 169.4777 14.72427601363909
ZHUHAI-1 03B            
1 44536U 19060C   26203.89639426  .00034399  00000+0  49410-3 0  9996
2 44536  97.5562   3.6516 0008861 177.8579 182.2715 15.55992425381876
ZHUHAI-1 03D            
1 44538U 19060E   26203.90684426  .00042133  00000+0  70543-3 0  9996
2 44538  97.5400 355.4690 0007877 163.8417 196.3087 15.51723305381617
ZHUHAI-1 03E            
1 44539U 19060F   26203.94348267  .00019608  00000+0  45965-3 0  9992
2 44539  97.5650 355.1691 0004670 240.8886 119.1893 15.42113278381279
GAOFEN-7                
1 44703U 19072A   26203.91496328  .00004243  00000+0  19416-3 0  9998
2 44703  97.5700 264.6883 0016874 283.1952  76.7400 15.20958819373073
JILIN-1 GAOFEN 2A       
1 44777U 19075A   26203.87802120  .00016214  00000+0  40584-3 0  9999
2 44777  97.4954 288.5230 0004564 322.3322  37.7604 15.40166261370372
NINGXIA-1 1             
1 44779U 19076A   26203.95295450 -.00000072  00000+0  37514-4 0  9999
2 44779  45.0070  20.0204 0011188 324.0107  35.9973 14.02042930342878
NINGXIA-1 5             
1 44783U 19076E   26203.96501351 -.00000152  00000+0 -14110-4 0  9992
2 44783  45.0066  19.2956 0011192 314.3699  45.6217 14.02090076342799
KL-ALPHA A              
1 44785U 19077A   26203.98113968  .00000122  00000+0  15725-3 0  9997
2 44785  88.9239 218.6494 0011617  16.2022 343.9502 13.56046364330585
CARTOSAT-3              
1 44804U 19081A   26203.98728221  .00003256  00000+0  15761-3 0  9999
2 44804  97.4286 265.2730 0012269  34.5942 325.6089 15.19219086368901
JILIN-1 GAOFEN 2B       
1 44836U 19086A   26203.87265460  .00006786  00000+0  30783-3 0  9990
2 44836  97.4865 275.6452 0013975 188.1047 171.9965 15.21061975365910
TIANQIN 1 (CAS-6)       
1 44879U 19093A   26203.95190666  .00000900  00000+0  86336-4 0  9997
2 44879  97.7793 287.5358 0009866 297.2726  62.7489 14.95577840357391
ETRSS-1                 
1 44880U 19093B   26203.94814147  .00001096  00000+0  10279-3 0  9994
2 44880  97.7814 288.0234 0009933 297.9812  62.0404 14.96030689357402
TIANYAN 01              
1 44881U 19093C   26203.92169269 -.00000052  00000+0  17388-6 0  9994
2 44881  97.7512 275.2802 0012885 335.7526  24.3082 14.86566146356728
TIANYAN 02              
1 44882U 19093D   26203.94572653  .00007950  00000+0  55466-3 0  9991
2 44882  97.7935 299.0887 0012501 259.5760 100.4058 15.05598053357996
CBERS 4A                
1 44883U 19093E   26203.95526958  .00000994  00000+0  13383-3 0  9993
2 44883  98.0173 271.4234 0001929 124.7462 235.3933 14.81453901356375
WEILAI 1R               
1 44884U 19093F   26203.92469470  .00003992  00000+0  31763-3 0  9999
2 44884  97.7891 293.8793 0014666 281.1855  78.7720 15.00911044357781
